{
    "links": {
        "self": "http://www.neowsapp.com/rest/v1/neo/54053821?api_key=iIulBulltgU6a56xZRHN4H3l9WmuAYTsLGpBGhQ2"
    },
    "id": "54053821",
    "neo_reference_id": "54053821",
    "name": "(2020 RD2)",
    "designation": "2020 RD2",
    "nasa_jpl_url": "http://ssd.jpl.nasa.gov/sbdb.cgi?sstr=54053821",
    "absolute_magnitude_h": 23.374,
    "estimated_diameter": {
        "kilometers": {
            "estimated_diameter_min": 0.0562024149,
            "estimated_diameter_max": 0.1256724202
        },
        "meters": {
            "estimated_diameter_min": 56.2024148887,
            "estimated_diameter_max": 125.6724201908
        },
        "miles": {
            "estimated_diameter_min": 0.0349225507,
            "estimated_diameter_max": 0.0780891974
        },
        "feet": {
            "estimated_diameter_min": 184.3911308635,
            "estimated_diameter_max": 412.3111030589
        }
    },
    "is_potentially_hazardous_asteroid": false,
    "close_approach_data": [
        {
            "close_approach_date": "2017-09-25",
            "close_approach_date_full": "2017-Sep-25 10:16",
            "epoch_date_close_approach": 1506334560000,
            "relative_velocity": {
                "kilometers_per_second": "27.5152217539",
                "kilometers_per_hour": "99054.7983140724",
                "miles_per_hour": "61548.799541319"
            },
            "miss_distance": {
                "astronomical": "0.3933488394",
                "lunar": "153.0126985266",
                "kilometers": "58844148.541212078",
                "miles": "36564058.4055915564"
            },
            "orbiting_body": "Earth"
        },
        {
            "close_approach_date": "2020-09-10",
            "close_approach_date_full": "2020-Sep-10 12:10",
            "epoch_date_close_approach": 1599739800000,
            "relative_velocity": {
                "kilometers_per_second": "26.0771360577",
                "kilometers_per_hour": "93877.6898076178",
                "miles_per_hour": "58331.9456474056"
            },
            "miss_distance": {
                "astronomical": "0.0299677472",
                "lunar": "11.6574536608",
                "kilometers": "4483111.149818464",
                "miles": "2785676.0949802432"
            },
            "orbiting_body": "Earth"
        },
        {
            "close_approach_date": "2023-08-26",
            "close_approach_date_full": "2023-Aug-26 08:57",
            "epoch_date_close_approach": 1693040220000,
            "relative_velocity": {
                "kilometers_per_second": "29.4867093365",
                "kilometers_per_hour": "106152.1536112412",
                "miles_per_hour": "65958.8201147182"
            },
            "miss_distance": {
                "astronomical": "0.4379657797",
                "lunar": "170.3686883033",
                "kilometers": "65518747.776009239",
                "miles": "40711462.0524319382"
            },
            "orbiting_body": "Earth"
        },
        {
            "close_approach_date": "2118-09-28",
            "close_approach_date_full": "2118-Sep-28 18:47",
            "epoch_date_close_approach": 4693834020000,
            "relative_velocity": {
                "kilometers_per_second": "27.9379076879",
                "kilometers_per_hour": "100576.4676762834",
                "miles_per_hour": "62494.3057069662"
            },
            "miss_distance": {
                "astronomical": "0.439583841",
                "lunar": "170.998114149",
                "kilometers": "65760806.30001867",
                "miles": "40861870.244730846"
            },
            "orbiting_body": "Earth"
        }
    ],
    "orbital_data": {
        "orbit_id": "5",
        "orbit_determination_date": "2020-09-16 07:59:42",
        "first_observation_date": "2020-09-10",
        "last_observation_date": "2020-09-16",
        "data_arc_in_days": 6,
        "observations_used": 85,
        "orbit_uncertainty": "8",
        "minimum_orbit_intersection": ".0226988",
        "jupiter_tisserand_invariant": "4.666",
        "epoch_osculation": "2459104.5",
        "eccentricity": ".2110531638712517",
        "semi_major_axis": "1.289658023310273",
        "inclination": "49.5969093381899",
        "ascending_node_longitude": "348.5969315897983",
        "orbital_period": "534.9464051403935",
        "perihelion_distance": "1.017471617178695",
        "perihelion_argument": "21.04831229994863",
        "aphelion_distance": "1.56184442944185",
        "perihelion_time": "2459122.468255619956",
        "mean_anomaly": "347.9079998275967",
        "mean_motion": ".6729646120446779",
        "equinox": "J2000",
        "orbit_class": {
            "orbit_class_type": "AMO",
            "orbit_class_description": "Near-Earth asteroid orbits similar to that of 1221 Amor",
            "orbit_class_range": "1.017 AU < q (perihelion) < 1.3 AU"
        }
    },
    "is_sentry_object": false
}